CTC1_L_00266016-03
1 70359U 24114MX  26037.47804398  .00000000  00000+0  00000-0 0  9996
2 70359  95.0000 180.0000 0000000   0.0000   0.0000 15.38683701    12
CTC1_L_00266016-04
1 70360U 22946CP  26037.47804398  .00000000  00000+0  00000-0 0  9999
2 70360  95.0000 180.0000 0000000   0.0000  90.0000 15.38683701    13
CTC1_L_00266017-01
1 70361U 25119SH  26037.47804398  .00000000  00000+0  00000-0 0  9995
2 70361  95.0000 192.0000 0000000   0.0000 192.0000 15.38683701    10
CTC1_L_00266017-02
1 70362U 23599CX  26037.47804398  .00000000  00000+0  00000-0 0  9996
2 70362  95.0000 192.0000 0000000   0.0000 282.0000 15.38683701    11
CTC1_L_00266017-03
1 70363U 23235RJ  26037.47804398  .00000000  00000+0  00000-0 0  9994
2 70363  95.0000 192.0000 0000000   0.0000  12.0000 15.38683701    13
CTC1_L_00266017-04
1 70364U 24369TL  26037.47804398  .00000000  00000+0  00000-0 0  9994
2 70364  95.0000 192.0000 0000000   0.0000 102.0000 15.38683701    14
CTC1_L_00266018-01
1 70365U 22096QW  26037.47804398  .00000000  00000+0  00000-0 0  9990
2 70365  95.0000 204.0000 0000000   0.0000 204.0000 15.38683701    12
CTC1_L_00266018-02
1 70366U 26089RW  26037.47804398  .00000000  00000+0  00000-0 0  9997
2 70366  95.0000 204.0000 0000000   0.0000 294.0000 15.38683701    12
CTC1_L_00266018-03
1 70367U 23827ZA  26037.47804398  .00000000  00000+0  00000-0 0  9995
2 70367  95.0000 204.0000 0000000   0.0000  24.0000 15.38683701    14
CTC1_L_00266018-04
1 70368U 23755IM  26037.47804398  .00000000  00000+0  00000-0 0  9996
2 70368  95.0000 204.0000 0000000   0.0000 114.0000 15.38683701    15
CTC1_L_00266019-01
1 70369U 23086CG  26037.47804398  .00000000  00000+0  00000-0 0  9994
2 70369  95.0000 216.0000 0000000   0.0000 216.0000 15.38683701    12
CTC1_L_00266019-02
1 70370U 26826ZB  26037.47804398  .00000000  00000+0  00000-0 0  9991
2 70370  95.0000 216.0000 0000000   0.0000 306.0000 15.38683701    14
CTC1_L_00266019-03
1 70371U 23568RE  26037.47804398  .00000000  00000+0  00000-0 0  9992
2 70371  95.0000 216.0000 0000000   0.0000  36.0000 15.38683701    15
CTC1_L_00266019-04
1 70372U 24318FY  26037.47804398  .00000000  00000+0  00000-0 0  9997
2 70372  95.0000 216.0000 0000000   0.0000 126.0000 15.38683701    16
CTC1_L_00266020-01
1 70373U 25845SI  26037.47804398  .00000000  00000+0  00000-0 0  9994
2 70373  95.0000 228.0000 0000000   0.0000 228.0000 15.38683701    13
CTC1_L_00266020-02
1 70374U 24982SA  26037.47804398  .00000000  00000+0  00000-0 0  9996
2 70374  95.0000 228.0000 0000000   0.0000 318.0000 15.38683701    14
CTC1_L_00266020-03
1 70375U 22232TE  26037.47804398  .00000000  00000+0  00000-0 0  9993
2 70375  95.0000 228.0000 0000000   0.0000  48.0000 15.38683701    15
CTC1_L_00266020-04
1 70376U 22325QW  26037.47804398  .00000000  00000+0  00000-0 0  9997
2 70376  95.0000 228.0000 0000000   0.0000 138.0000 15.38683701    16
CTC1_L_00266021-01
1 70377U 26369WD  26037.47804398  .00000000  00000+0  00000-0 0  9990
2 70377  95.0000 240.0000 0000000   0.0000 240.0000 15.38683701    15
CTC1_L_00266021-02
1 70378U 24196NS  26037.47804398  .00000000  00000+0  00000-0 0  9997
2 70378  95.0000 240.0000 0000000   0.0000 330.0000 15.38683701    16
CTC1_L_00266021-03
1 70379U 22275TP  26037.47804398  .00000000  00000+0  00000-0 0  9994
2 70379  95.0000 240.0000 0000000   0.0000  60.0000 15.38683701    17
CTC1_L_00266021-04
1 70380U 22947NV  26037.47804398  .00000000  00000+0  00000-0 0  9992
2 70380  95.0000 240.0000 0000000   0.0000 150.0000 15.38683701    19
CTC1_L_00266022-01
1 70381U 23728JP  26037.47804398  .00000000  00000+0  00000-0 0  9991
2 70381  95.0000 252.0000 0000000   0.0000 252.0000 15.38683701    16
CTC1_L_00266022-02
1 70382U 22096PI  26037.47804398  .00000000  00000+0  00000-0 0  9999
2 70382  95.0000 252.0000 0000000   0.0000 342.0000 15.38683701    17
CTC1_L_00266022-03
1 70383U 24768GI  26037.47804398  .00000000  00000+0  00000-0 0  9998
2 70383  95.0000 252.0000 0000000   0.0000  72.0000 15.38683701    18
CTC1_L_00266022-04
1 70384U 26157HY  26037.47804398  .00000000  00000+0  00000-0 0  9993
2 70384  95.0000 252.0000 0000000   0.0000 162.0000 15.38683701    19
CTC1_L_00266023-01
1 70385U 25687GZ  26037.47804398  .00000000  00000+0  00000-0 0  9991
2 70385  95.0000 264.0000 0000000   0.0000 264.0000 15.38683701    16
CTC1_L_00266023-02
1 70386U 25903DV  26037.47804398  .00000000  00000+0  00000-0 0  9993
2 70386  95.0000 264.0000 0000000   0.0000 354.0000 15.38683701    17
CTC1_L_00266023-03
1 70387U 25772HE  26037.47804398  .00000000  00000+0  00000-0 0  9998
2 70387  95.0000 264.0000 0000000   0.0000  84.0000 15.38683701    18
CTC1_L_00266023-04
1 70388U 25341ES  26037.47804398  .00000000  00000+0  00000-0 0  9991
2 70388  95.0000 264.0000 0000000   0.0000 174.0000 15.38683701    19
CTC1_L_00266024-01
1 70389U 23983VF  26037.47804398  .00000000  00000+0  00000-0 0  9992
2 70389  95.0000 276.0000 0000000   0.0000 276.0000 15.38683701    16
CTC1_L_00266024-02
1 70390U 26129JT  26037.47804398  .00000000  00000+0  00000-0 0  9999
2 70390  95.0000 276.0000 0000000   0.0000   6.0000 15.38683701    19
CTC1_L_00266024-03
1 70391U 22069NV  26037.47804398  .00000000  00000+0  00000-0 0  9999
2 70391  95.0000 276.0000 0000000   0.0000  96.0000 15.38683701    19
CTC1_L_00266024-04
1 70392U 26383GR  26037.47804398  .00000000  00000+0  00000-0 0  9993
2 70392  95.0000 276.0000 0000000   0.0000 186.0000 15.38683701    10
CTC1_L_00266025-01
1 70393U 24529TA  26037.47804398  .00000000  00000+0  00000-0 0  9994
2 70393  95.0000 288.0000 0000000   0.0000 288.0000 15.38683701    17
CTC1_L_00266025-02
1 70394U 22269ZG  26037.47804398  .00000000  00000+0  00000-0 0  9994
2 70394  95.0000 288.0000 0000000   0.0000  18.0000 15.38683701    19
CTC1_L_00266025-03
1 70395U 25862EE  26037.47804398  .00000000  00000+0  00000-0 0  9997
2 70395  95.0000 288.0000 0000000   0.0000 108.0000 15.38683701    10
CTC1_L_00266025-04
1 70396U 23431CY  26037.47804398  .00000000  00000+0  00000-0 0  9998
2 70396  95.0000 288.0000 0000000   0.0000 198.0000 15.38683701    10
CTC1_L_00266026-01
1 70397U 22195IA  26037.47804398  .00000000  00000+0  00000-0 0  9995
2 70397  95.0000 300.0000 0000000   0.0000 300.0000 15.38683701    11
CTC1_L_00266026-02
1 70398U 24822PD  26037.47804398  .00000000  00000+0  00000-0 0  9995
2 70398  95.0000 300.0000 0000000   0.0000  30.0000 15.38683701    12
CTC1_L_00266026-03
1 70399U 25112VT  26037.47804398  .00000000  00000+0  00000-0 0  9999
2 70399  95.0000 300.0000 0000000   0.0000 120.0000 15.38683701    13
CTC1_L_00266026-04
1 70400U 26741SE  26037.47804398  .00000000  00000+0  00000-0 0  9991
2 70400  95.0000 300.0000 0000000   0.0000 210.0000 15.38683701    16
CTC1_L_00266027-01
1 70401U 23842TN  26037.47804398  .00000000  00000+0  00000-0 0  9991
2 70401  95.0000 312.0000 0000000   0.0000 312.0000 15.38683701    13
CTC1_L_00266027-02
1 70402U 25740QK  26037.47804398  .00000000  00000+0  00000-0 0  9991
2 70402  95.0000 312.0000 0000000   0.0000  42.0000 15.38683701    14
CTC1_L_00266027-03
1 70403U 25972UT  26037.47804398  .00000000  00000+0  00000-0 0  9999
2 70403  95.0000 312.0000 0000000   0.0000 132.0000 15.38683701    15
CTC1_L_00266027-04
1 70404U 26884ZQ  26037.47804398  .00000000  00000+0  00000-0 0  9993
2 70404  95.0000 312.0000 0000000   0.0000 222.0000 15.38683701    16
CTC1_L_00266028-01
1 70405U 23737YL  26037.47804398  .00000000  00000+0  00000-0 0  9998
2 70405  95.0000 324.0000 0000000   0.0000 324.0000 15.38683701    13
CTC1_L_00266028-02
1 70406U 23551VD  26037.47804398  .00000000  00000+0  00000-0 0  9993
2 70406  95.0000 324.0000 0000000   0.0000  54.0000 15.38683701    14
CTC1_L_00266028-03
1 70407U 26535SH  26037.47804398  .00000000  00000+0  00000-0 0  9999
2 70407  95.0000 324.0000 0000000   0.0000 144.0000 15.38683701    15
CTC1_L_00266028-04
1 70408U 26413HA  26037.47804398  .00000000  00000+0  00000-0 0  9995
2 70408  95.0000 324.0000 0000000   0.0000 234.0000 15.38683701    16
CTC1_L_00266029-01
1 70409U 26523TL  26037.47804398  .00000000  00000+0  00000-0 0  9998
2 70409  95.0000 336.0000 0000000   0.0000 336.0000 15.38683701    13
CTC1_L_00266029-02
1 70410U 24509PG  26037.47804398  .00000000  00000+0  00000-0 0  9992
2 70410  95.0000 336.0000 0000000   0.0000  66.0000 15.38683701    15
CTC1_L_00266029-03
1 70411U 26463FX  26037.47804398  .00000000  00000+0  00000-0 0  9994
2 70411  95.0000 336.0000 0000000   0.0000 156.0000 15.38683701    16
CTC1_L_00266029-04
1 70412U 25396EE  26037.47804398  .00000000  00000+0  00000-0 0  9999
2 70412  95.0000 336.0000 0000000   0.0000 246.0000 15.38683701    17
CTC1_L_00266030-01
1 70413U 22099GP  26037.47804398  .00000000  00000+0  00000-0 0  9997
2 70413  95.0000 348.0000 0000000   0.0000 348.0000 15.38683701    14
CTC1_L_00266030-02
1 70414U 26922CB  26037.47804398  .00000000  00000+0  00000-0 0  9997
2 70414  95.0000 348.0000 0000000   0.0000  78.0000 15.38683701    15
CTC1_L_00266030-03
1 70415U 22843IU  26037.47804398  .00000000  00000+0  00000-0 0  9996
2 70415  95.0000 348.0000 0000000   0.0000 168.0000 15.38683701    16
CTC1_L_00266030-04
1 70416U 24225UQ  26037.47804398  .00000000  00000+0  00000-0 0  9993
2 70416  95.0000 348.0000 0000000   0.0000 258.0000 15.38683701    17
